{
  "type": "FeatureCollection",
  "features": [
    {
      "type": "Feature",
      "properties": {
        "norad_id": 36736,
        "name": "FENGYUN 1C DEB",
        "group": "fengyun-1c-debris",
        "lat": 29.495282703196708,
        "lon": -120.74646885749584,
        "alt_km": 761.7829601259773,
        "timestamp": "2025-12-06T18:50:10.457378+00:00",
        "meta_object_name": "FENGYUN 1C DEB",
        "meta_object_id": "1999-025EBJ",
        "meta_epoch": "2025-12-05T11:48:38.993472",
        "meta_mean_motion": 14.25379017,
        "meta_eccentricity": 0.00614668,
        "meta_inclination": 98.8072,
        "meta_ra_of_asc_node": 52.9246,
        "meta_arg_of_pericenter": 160.5855,
        "meta_mean_anomaly": 199.7685,
        "meta_ephemeris_type": 0,
        "meta_classification_type": "U",
        "meta_norad_cat_id": 36736,
        "meta_element_set_no": 999,
        "meta_rev_at_epoch": 88512,
        "meta_bstar": 0.0034707525,
        "meta_mean_motion_dot": 8.311e-05,
        "meta_mean_motion_ddot": 0,
        "tle_line1": "1 36736U 99025EBJ 25339.49211798  .00008311  00000+0  34708-2 0  9999",
        "tle_line2": "2 36736  98.8072  52.9246 0061466 160.5855 199.7685 14.25379017885120"
      },
      "geometry": {
        "type": "Point",
        "coordinates": [
          -120.74646885749584,
          29.495282703196708
        ]
      }
    },
    {
      "type": "Feature",
      "properties": {
        "norad_id": 36743,
        "name": "FENGYUN 1C DEB",
        "group": "fengyun-1c-debris",
        "lat": 74.26082411793077,
        "lon": -118.18549074738107,
        "alt_km": 777.2643031599328,
        "timestamp": "2025-12-06T18:50:10.457388+00:00",
        "meta_object_name": "FENGYUN 1C DEB",
        "meta_object_id": "1999-025EBR",
        "meta_epoch": "2025-12-04T14:15:58.905792",
        "meta_mean_motion": 14.29017755,
        "meta_eccentricity": 0.0047823,
        "meta_inclination": 98.656,
        "meta_ra_of_asc_node": 26.9209,
        "meta_arg_of_pericenter": 37.2124,
        "meta_mean_anomaly": 323.2356,
        "meta_ephemeris_type": 0,
        "meta_classification_type": "U",
        "meta_norad_cat_id": 36743,
        "meta_element_set_no": 999,
        "meta_rev_at_epoch": 60621,
        "meta_bstar": 0.0026931,
        "meta_mean_motion_dot": 6.861e-05,
        "meta_mean_motion_ddot": 0,
        "tle_line1": "1 36743U 99025EBR 25338.59443178  .00006861  00000+0  26931-2 0  9993",
        "tle_line2": "2 36743  98.6560  26.9209 0047823  37.2124 323.2356 14.29017755606210"
      },
      "geometry": {
        "type": "Point",
        "coordinates": [
          -118.18549074738107,
          74.26082411793077
        ]
      }
    },
    {
      "type": "Feature",
      "properties": {
        "norad_id": 36986,
        "name": "FENGYUN 1C DEB",
        "group": "fengyun-1c-debris",
        "lat": 10.888109308554641,
        "lon": 44.859126061776706,
        "alt_km": 868.7918343359961,
        "timestamp": "2025-12-06T18:50:10.457398+00:00",
        "meta_object_name": "FENGYUN 1C DEB",
        "meta_object_id": "1999-025EBS",
        "meta_epoch": "2025-11-23T16:41:57.060384",
        "meta_mean_motion": 14.14366632,
        "meta_eccentricity": 0.00851125,
        "meta_inclination": 99.1414,
        "meta_ra_of_asc_node": 33.2424,
        "meta_arg_of_pericenter": 295.2999,
        "meta_mean_anomaly": 63.9373,
        "meta_ephemeris_type": 0,
        "meta_classification_type": "U",
        "meta_norad_cat_id": 36986,
        "meta_element_set_no": 999,
        "meta_rev_at_epoch": 81475,
        "meta_bstar": 0.0017459823,
        "meta_mean_motion_dot": 3.412e-05,
        "meta_mean_motion_ddot": 0,
        "tle_line1": "1 36986U 99025EBS 25327.69579931  .00003412  00000+0  17460-2 0  9994",
        "tle_line2": "2 36986  99.1414  33.2424 0085112 295.2999  63.9373 14.14366632814754"
      },
      "geometry": {
        "type": "Point",
        "coordinates": [
          44.859126061776706,
          10.888109308554641
        ]
      }
    },
    {
      "type": "Feature",
      "properties": {
        "norad_id": 36987,
        "name": "FENGYUN 1C DEB",
        "group": "fengyun-1c-debris",
        "lat": -54.65747446744291,
        "lon": -123.27273950769201,
        "alt_km": 1196.8545835805153,
        "timestamp": "2025-12-06T18:50:10.457408+00:00",
        "meta_object_name": "FENGYUN 1C DEB",
        "meta_object_id": "1999-025EBT",
        "meta_epoch": "2025-12-05T21:42:17.790912",
        "meta_mean_motion": 13.45857904,
        "meta_eccentricity": 0.03195777,
        "meta_inclination": 100.8196,
        "meta_ra_of_asc_node": 220.1336,
        "meta_arg_of_pericenter": 63.0695,
        "meta_mean_anomaly": 300.2705,
        "meta_ephemeris_type": 0,
        "meta_classification_type": "U",
        "meta_norad_cat_id": 36987,
        "meta_element_set_no": 999,
        "meta_rev_at_epoch": 60785,
        "meta_bstar": 0.0017726292,
        "meta_mean_motion_dot": 1.39e-05,
        "meta_mean_motion_ddot": 0,
        "tle_line1": "1 36987U 99025EBT 25339.90437258  .00001390  00000+0  17726-2 0  9995",
        "tle_line2": "2 36987 100.8196 220.1336 0319577  63.0695 300.2705 13.45857904607857"
      },
      "geometry": {
        "type": "Point",
        "coordinates": [
          -123.27273950769201,
          -54.65747446744291
        ]
      }
    },
    {
      "type": "Feature",
      "properties": {
        "norad_id": 36990,
        "name": "FENGYUN 1C DEB",
        "group": "fengyun-1c-debris",
        "lat": -80.3321399246356,
        "lon": 68.57743148016282,
        "alt_km": 1209.097779471811,
        "timestamp": "2025-12-06T18:50:10.457417+00:00",
        "meta_object_name": "FENGYUN 1C DEB",
        "meta_object_id": "1999-025EBW",
        "meta_epoch": "2025-12-05T02:36:38.289600",
        "meta_mean_motion": 13.56914719,
        "meta_eccentricity": 0.0292772,
        "meta_inclination": 96.5839,
        "meta_ra_of_asc_node": 290.134,
        "meta_arg_of_pericenter": 44.0413,
        "meta_mean_anomaly": 318.3658,
        "meta_ephemeris_type": 0,
        "meta_classification_type": "U",
        "meta_norad_cat_id": 36990,
        "meta_element_set_no": 999,
        "meta_rev_at_epoch": 82784,
        "meta_bstar": 0.0013157618,
        "meta_mean_motion_dot": 1.212e-05,
        "meta_mean_motion_ddot": 0,
        "tle_line1": "1 36990U 99025EBW 25339.10877650  .00001212  00000+0  13158-2 0  9993",
        "tle_line2": "2 36990  96.5839 290.1340 0292772  44.0413 318.3658 13.56914719827842"
      },
      "geometry": {
        "type": "Point",
        "coordinates": [
          68.57743148016282,
          -80.3321399246356
        ]
      }
    },
    {
      "type": "Feature",
      "properties": {
        "norad_id": 36994,
        "name": "FENGYUN 1C DEB",
        "group": "fengyun-1c-debris",
        "lat": 60.26537165785965,
        "lon": -71.99130563453254,
        "alt_km": 950.3452333826572,
        "timestamp": "2025-12-06T18:50:10.457428+00:00",
        "meta_object_name": "FENGYUN 1C DEB",
        "meta_object_id": "1999-025ECA",
        "meta_epoch": "2025-12-05T02:49:53.555808",
        "meta_mean_motion": 13.90781204,
        "meta_eccentricity": 0.01148937,
        "meta_inclination": 98.6422,
        "meta_ra_of_asc_node": 301.8993,
        "meta_arg_of_pericenter": 314.265,
        "meta_mean_anomaly": 44.9126,
        "meta_ephemeris_type": 0,
        "meta_classification_type": "U",
        "meta_norad_cat_id": 36994,
        "meta_element_set_no": 999,
        "meta_rev_at_epoch": 80801,
        "meta_bstar": 0.00032032166,
        "meta_mean_motion_dot": 3.81e-06,
        "meta_mean_motion_ddot": 0,
        "tle_line1": "1 36994U 99025ECA 25339.11798097  .00000381  00000+0  32032-3 0  9994",
        "tle_line2": "2 36994  98.6422 301.8993 0114893 314.2650  44.9126 13.90781204808012"
      },
      "geometry": {
        "type": "Point",
        "coordinates": [
          -71.99130563453254,
          60.26537165785965
        ]
      }
    },
    {
      "type": "Feature",
      "properties": {
        "norad_id": 36995,
        "name": "FENGYUN 1C DEB",
        "group": "fengyun-1c-debris",
        "lat": 23.327170335410386,
        "lon": -143.6613233537239,
        "alt_km": 860.2564807429771,
        "timestamp": "2025-12-06T18:50:10.457437+00:00",
        "meta_object_name": "FENGYUN 1C DEB",
        "meta_object_id": "1999-025ECB",
        "meta_epoch": "2025-12-05T22:12:47.910528",
        "meta_mean_motion": 14.04866199,
        "meta_eccentricity": 0.00388963,
        "meta_inclination": 98.3438,
        "meta_ra_of_asc_node": 219.1768,
        "meta_arg_of_pericenter": 330.987,
        "meta_mean_anomaly": 28.9138,
        "meta_ephemeris_type": 0,
        "meta_classification_type": "U",
        "meta_norad_cat_id": 36995,
        "meta_element_set_no": 999,
        "meta_rev_at_epoch": 63461,
        "meta_bstar": 3.0259787e-05,
        "meta_mean_motion_dot": 1e-07,
        "meta_mean_motion_ddot": 0,
        "tle_line1": "1 36995U 99025ECB 25339.92555452  .00000010  00000+0  30260-4 0  9991",
        "tle_line2": "2 36995  98.3438 219.1768 0038896 330.9870  28.9138 14.04866199634616"
      },
      "geometry": {
        "type": "Point",
        "coordinates": [
          -143.6613233537239,
          23.327170335410386
        ]
      }
    }
  ]
}